NORAD_CAT_ID,OBJECT_NAME,OBJECT_TYPE,EPOCH,MEAN_MOTION,ECCENTRICITY,INCLINATION,RA_OF_ASC_NODE,ARG_OF_PERICENTER,MEAN_ANOMALY,BSTAR,MEAN_MOTION_DOT,MEAN_MOTION_DDOT,TLE_LINE0,TLE_LINE1,TLE_LINE2,SEMIMAJOR_AXIS,PERIOD,APOGEE,PERIGEE,DECAYED
56474.0,STARLINK-5524,PAYLOAD,2024-05-27 13:41:50,14.98331511,0.0003152,69.9997,326.3337,262.6537,97.4263,9.4601e-05,1.036e-05,0.0,0 STARLINK-5524,1 56474U 23064AC  24148.57071933  .00001036  00000-0  94601-4 0  9999,2 56474  69.9997 326.3337 0003152 262.6537  97.4263 14.98331511 58208,6950.188,96.107,574.244,569.863,0.0
56474.0,STARLINK-5524,PAYLOAD,2024-05-27 20:06:22,14.98332782,0.0003146,69.9997,325.6604,262.4385,97.6417,0.00010146,1.118e-05,0.0,0 STARLINK-5524,1 56474U 23064AC  24148.83775806  .00001118  00000-0  10146-3 0  9990,2 56474  69.9997 325.6604 0003146 262.4385  97.6417 14.98332782 58607,6950.184,96.107,574.236,569.863,0.0
56474.0,STARLINK-5524,PAYLOAD,2024-05-27 21:42:30,14.9833339,0.00032,69.9995,325.4911,266.4835,93.5958,0.00010681,1.182e-05,0.0,0 STARLINK-5524,1 56474U 23064AC  24148.90451763  .00001182  00000-0  10681-3 0  9996,2 56474  69.9995 325.4911 0003200 266.4835  93.5958 14.98333390 58251,6950.182,96.107,574.271,569.823,0.0
56474.0,STARLINK-5524,PAYLOAD,2024-05-28 13:43:51,14.98332244,0.0003214,69.9995,323.808,268.3653,91.7138,5.5271e-05,5.67e-06,0.0,0 STARLINK-5524,1 56474U 23064AC  24149.57211837  .00000567  00000-0  55271-4 0  9997,2 56474  69.9995 323.8080 0003214 268.3653  91.7138 14.98332244 58352,6950.186,96.107,574.285,569.817,0.0
56474.0,STARLINK-5524,PAYLOAD,2024-05-28 20:08:23,14.9833323,0.0003206,69.9995,323.1346,268.3466,91.7326,5.8779e-05,6.08e-06,0.0,0 STARLINK-5524,1 56474U 23064AC  24149.83915701  .00000608  00000-0  58779-4 0  9999,2 56474  69.9995 323.1346 0003206 268.3466  91.7326 14.98333230 58752,6950.183,96.107,574.276,569.82,0.0
56474.0,STARLINK-5524,PAYLOAD,2024-05-28 21:44:31,14.98333478,0.0003209,69.9995,322.9663,268.505,91.5742,5.9252e-05,6.14e-06,0.0,0 STARLINK-5524,1 56474U 23064AC  24149.90591666  .00000614  00000-0  59252-4 0  9991,2 56474  69.9995 322.9663 0003209 268.5050  91.5742 14.98333478 58401,6950.182,96.107,574.277,569.817,0.0
56474.0,STARLINK-5524,PAYLOAD,2024-05-29 13:45:51,14.98331606,0.0003148,69.9996,321.2826,269.1895,90.8904,4.0152e-05,3.86e-06,0.0,0 STARLINK-5524,1 56474U 23064AC  24150.57351773  .00000386  00000-0  40152-4 0  9994,2 56474  69.9996 321.2826 0003148 269.1895  90.8904 14.98331606 58505,6950.188,96.107,574.241,569.865,0.0
56474.0,STARLINK-5524,PAYLOAD,2024-05-29 20:10:24,14.98332573,0.0003156,69.9997,320.6093,269.6955,90.3843,4.785e-05,4.78e-06,0.0,0 STARLINK-5524,1 56474U 23064AC  24150.84055711  .00000478  00000-0  47850-4 0  9991,2 56474  69.9997 320.6093 0003156 269.6955  90.3843 14.98332573 58901,6950.185,96.107,574.243,569.856,0.0
56474.0,STARLINK-5524,PAYLOAD,2024-05-29 21:46:32,14.98333177,0.0003156,69.9997,320.441,269.6002,90.4795,5.2949e-05,5.39e-06,0.0,0 STARLINK-5524,1 56474U 23064AC  24150.90731648  .00000539  00000-0  52949-4 0  9991,2 56474  69.9997 320.4410 0003156 269.6002  90.4795 14.98333177 58554,6950.183,96.107,574.242,569.855,0.0
56474.0,STARLINK-5524,PAYLOAD,2024-05-30 13:47:52,14.98334494,0.0003165,69.9997,318.7578,266.7629,93.3168,8.6683e-05,9.42e-06,0.0,0 STARLINK-5524,1 56474U 23064AC  24151.57491384  .00000942  00000-0  86683-4 0  9995,2 56474  69.9997 318.7578 0003165 266.7629  93.3168 14.98334494 58652,6950.179,96.107,574.244,569.844,0.0
56474.0,STARLINK-5524,PAYLOAD,2024-05-30 18:36:16,14.98335758,0.0003148,69.9996,318.2527,266.0116,94.0683,9.7711e-05,1.073e-05,0.0,0 STARLINK-5524,1 56474U 23064AC  24151.77519235  .00001073  00000-0  97711-4 0  9993,2 56474  69.9996 318.2527 0003148 266.0116  94.0683 14.98335758 58682,6950.175,96.107,574.228,569.852,0.0
56474.0,STARLINK-5524,PAYLOAD,2024-05-30 20:12:24,14.98336374,0.0003164,69.9996,318.0844,265.9399,94.1398,0.00011176,1.241e-05,0.0,0 STARLINK-5524,1 56474U 23064AC  24151.84195123  .00001241  00000-0  11176-3 0  9994,2 56474  69.9996 318.0844 0003164 265.9399  94.1398 14.98336374 59052,6950.173,96.107,574.237,569.839,0.0
56474.0,STARLINK-5524,PAYLOAD,2024-05-31 13:49:53,14.9833214,0.00031,69.9997,316.2327,265.0867,94.9938,7.272e-05,7.75e-06,0.0,0 STARLINK-5524,1 56474U 23064AC  24152.57631375  .00000775  00000-0  72720-4 0  9993,2 56474  69.9997 316.2327 0003100 265.0867  94.9938 14.98332140 58807,6950.186,96.107,574.206,569.897,0.0
56474.0,STARLINK-5524,PAYLOAD,2024-05-31 20:14:25,14.98332959,0.0003132,69.9996,315.5595,269.7797,90.3003,7.1925e-05,7.65e-06,0.0,0 STARLINK-5524,1 56474U 23064AC  24152.84335278  .00000765  00000-0  71925-4 0  9991,2 56474  69.9996 315.5595 0003132 269.7797  90.3003 14.98332959 59209,6950.184,96.107,574.226,569.872,0.0
56474.0,STARLINK-5524,PAYLOAD,2024-06-01 04:15:06,14.98327684,0.0003098,69.9995,314.7179,269.9424,90.138,-7.2522e-06,-1.8e-06,0.0,0 STARLINK-5524,1 56474U 23064AC  24153.17715798 -.00000180  00000-0 -72522-5 0  9995,2 56474  69.9995 314.7179 0003098 269.9424  90.1380 14.98327684 59257,6950.2,96.107,574.218,569.912,0.0
56474.0,STARLINK-5524,PAYLOAD,2024-06-01 13:51:54,14.98328175,0.0003097,69.9994,313.7078,269.6927,90.3877,-2.7477e-05,-4.21e-06,0.0,0 STARLINK-5524,1 56474U 23064AC  24153.57771847 -.00000421  00000-0 -27477-4 0  9992,2 56474  69.9994 313.7078 0003097 269.6927  90.3877 14.98328175 58952,6950.199,96.107,574.216,569.911,0.0
56474.0,STARLINK-5524,PAYLOAD,2024-06-02 04:17:07,14.98330926,0.0003157,69.9996,312.1923,268.9682,91.1115,3.0005e-06,-5.7e-07,0.0,0 STARLINK-5524,1 56474U 23064AC  24154.17855615 -.00000057  00000-0  30005-5 0  9991,2 56474  69.9996 312.1923 0003157 268.9682  91.1115 14.98330926 59405,6950.19,96.107,574.249,569.861,0.0
56474.0,STARLINK-5524,PAYLOAD,2024-06-02 12:17:47,14.98331495,0.0003256,69.9993,311.3504,268.8044,91.2742,9.5896e-05,1.051e-05,0.0,0 STARLINK-5524,1 56474U 23064AC  24154.51235318  .00001051  00000-0  95896-4 0  9993,2 56474  69.9993 311.3504 0003256 268.8044  91.2742 14.98331495 59093,6950.188,96.107,574.316,569.79,0.0
56474.0,STARLINK-5524,PAYLOAD,2024-06-03 04:19:07,14.98333022,0.0003266,69.9994,309.6663,267.5701,92.5084,0.00010538,1.165e-05,0.0,0 STARLINK-5524,1 56474U 23064AC  24155.17995150  .00001165  00000-0  10538-3 0  9998,2 56474  69.9994 309.6663 0003266 267.5701  92.5084 14.98333022 59559,6950.184,96.107,574.318,569.779,0.0
56474.0,STARLINK-5524,PAYLOAD,2024-06-03 12:19:48,14.98329276,0.000328,69.9993,308.8249,267.6993,92.379,0.00011849,1.321e-05,0.0,0 STARLINK-5524,1 56474U 23064AC  24155.51375391  .00001321  00000-0  11849-3 0  9995,2 56474  69.9993 308.8249 0003280 267.6993  92.3790 14.98329276 59243,6950.195,96.107,574.34,569.78,0.0
56474.0,STARLINK-5524,PAYLOAD,2024-06-04 10:45:41,14.98335434,0.0003205,69.9976,306.4668,263.9172,96.1622,2.0722e-05,1.54e-06,0.0,0 STARLINK-5524,1 56474U 23064AC  24156.44839156  .00000154  00000-0  20722-4 0  9996,2 56474  69.9976 306.4668 0003205 263.9172  96.1622 14.98335434 59742,6950.176,96.107,574.269,569.814,0.0
56474.0,STARLINK-5524,PAYLOAD,2024-06-05 12:23:50,14.98323908,0.0003135,69.9994,303.7753,270.0305,90.0495,-2.4905e-05,-3.9e-06,0.0,0 STARLINK-5524,1 56474U 23064AC  24157.51655850 -.00000390  00000-0 -24905-4 0  9993,2 56474  69.9994 303.7753 0003135 270.0305  90.0495 14.98323908 59908,6950.212,96.107,574.256,569.898,0.0
56474.0,STARLINK-5524,PAYLOAD,2024-06-05 15:36:06,14.98327985,0.0002852,70.0,303.4392,270.8336,89.2496,1.7145e-05,1.12e-06,0.0,0 STARLINK-5524,1 56474U 23064AC  24157.65007582  .00000112  00000-0  17145-4 0  9999,2 56474  70.0000 303.4392 0002852 270.8336  89.2496 14.98327985 59564,6950.199,96.107,574.046,570.082,0.0
56474.0,STARLINK-5524,PAYLOAD,2024-06-06 12:25:50,14.98337221,0.0002865,70.0003,301.2514,267.5431,92.5401,7.804e-05,8.38e-06,0.0,0 STARLINK-5524,1 56474U 23064AC  24158.51794883  .00000838  00000-0  78040-4 0  9998,2 56474  70.0003 301.2514 0002865 267.5431  92.5401 14.98337221 60055,6950.171,96.107,574.027,570.044,0.0
56474.0,STARLINK-5524,PAYLOAD,2024-06-06 15:38:06,14.98338911,0.0002849,70.0003,300.9148,267.3473,92.736,9.7394e-05,1.07e-05,0.0,0 STARLINK-5524,1 56474U 23064AC  24158.65146683  .00001070  00000-0  97394-4 0  9994,2 56474  70.0003 300.9148 0002849 267.3473  92.7360 14.98338911 59714,6950.165,96.106,574.01,570.05,0.0
56474.0,STARLINK-5524,PAYLOAD,2024-06-07 09:15:35,14.9832663,0.0003015,69.9999,299.0629,267.0073,93.0741,0.00012383,1.385e-05,0.0,0 STARLINK-5524,1 56474U 23064AC  24159.38583295  .00001385  00000-0  12383-3 0  9992,2 56474  69.9999 299.0629 0003015 267.0073  93.0741 14.98326630 60181,6950.203,96.107,574.164,569.973,0.0
56474.0,STARLINK-5524,PAYLOAD,2024-06-07 15:40:08,14.98325987,0.0003051,69.9994,298.3888,268.118,91.963,5.6641e-05,5.83e-06,0.0,0 STARLINK-5524,1 56474U 23064AC  24159.65287612  .00000583  00000-0  56641-4 0  9991,2 56474  69.9994 298.3888 0003051 268.1180  91.9630 14.98325987 59867,6950.205,96.107,574.191,569.95,0.0
56474.0,STARLINK-5524,PAYLOAD,2024-06-08 12:29:52,14.98356984,0.0003068,69.9998,296.2024,273.3886,86.6922,-0.00033855,-4.133e-05,0.0,0 STARLINK-5524,1 56474U 23064AC  24160.52074403 -.00004133  00000-0 -33855-3 0  9999,2 56474  69.9998 296.2024 0003068 273.3886  86.6922 14.98356984 59999,6950.109,96.105,574.107,569.842,0.0
56474.0,STARLINK-5524,PAYLOAD,2024-06-08 15:42:08,14.98340367,0.0003432,69.9994,295.8653,271.3629,88.7137,5.8524e-05,6.05e-06,0.0,0 STARLINK-5524,1 56474U 23064AC  24160.65426586  .00000605  00000-0  58524-4 0  9995,2 56474  69.9994 295.8653 0003432 271.3629  88.7137 14.98340367 60379,6950.161,96.106,574.411,569.641,0.0
56474.0,STARLINK-5524,PAYLOAD,2024-06-09 12:31:54,14.98325963,0.0003053,69.9999,293.676,272.1626,87.9184,1.0893e-05,3.7e-07,0.0,0 STARLINK-5524,1 56474U 23064AC  24161.52215631  .00000037  00000-0  10893-4 0  9995,2 56474  69.9999 293.6760 0003053 272.1626  87.9184 14.98325963 60507,6950.205,96.107,574.192,569.948,0.0
